{
 "type": "FeatureCollection",
 "archillyLab": {
  "prompt": "LAB-01",
  "adaptador": "0.1.0",
  "motor": "symbios-tensor 0.4.1",
  "seed": 42,
  "hash": "a524f01916f2da3e536b6a0f6477c12fb18c77c455d008565ab3aa429ac2092f",
  "parametros": {
   "espacamentoPrincipal_m": 200,
   "espacamentoLocal_m": 80,
   "rampaMaxima_pct": 10,
   "faixaDominio_m": 8.4,
   "passoGrade_m": 2,
   "extrairQuadras": true
  },
  "origem": {
   "lat0": -25.45,
   "lon0": -48.749861633363636,
   "metrosPorGrauLat": 110779.61683044254,
   "metrosPorGrauLon": 100579.27195684476
  },
  "aviso": "geometria NÃO recortada pela gleba nem pelas restrições — isso é o LAB-02"
 },
 "features": [
  {
   "type": "Feature",
   "geometry": {
    "type": "Polygon",
    "coordinates": [
     [
      [
       -48.748478,
       -25.45
      ],
      [
       -48.748327,
       -25.4507946
      ],
      [
       -48.7492313,
       -25.4515466
      ],
      [
       -48.7508049,
       -25.4516194
      ],
      [
       -48.7511574,
       -25.4505497
      ],
      [
       -48.7525414,
       -25.45
      ],
      [
       -48.7517599,
       -25.4491642
      ],
      [
       -48.7506511,
       -25.44869
      ],
      [
       -48.7493735,
       -25.4487395
      ],
      [
       -48.7476755,
       -25.448896
      ],
      [
       -48.748478,
       -25.45
      ]
     ]
    ]
   },
   "properties": {
    "tipo": "gleba",
    "nome": "Gleba Sintética 10 ha (plano)",
    "area_m2": 100000.01,
    "areaDeclarada_m2": 100000,
    "procedencia": "SINTÉTICO — inventado pelo LAB-01, não vem de estudo nenhum do Geo. 10 ha, rampa geral de 2,5 %, curvas de 1 m. Existe para dar o degrau inferior da escada de tamanho da seção 4 do prompt, com relevo simples o bastante para que a rampa das vias seja conferível a olho."
   }
  },
  {
   "type": "Feature",
   "geometry": {
    "type": "LineString",
    "coordinates": [
     [
      -48.7504696,
      -25.4485301
     ],
     [
      -48.750676,
      -25.4489207
     ],
     [
      -48.7507114,
      -25.4489875
     ],
     [
      -48.7510202,
      -25.4495718
     ],
     [
      -48.7510534,
      -25.4496347
     ],
     [
      -48.7513643,
      -25.4502229
     ],
     [
      -48.7513962,
      -25.4502833
     ],
     [
      -48.7517084,
      -25.450874
     ],
     [
      -48.7517429,
      -25.4509393
     ],
     [
      -48.7520864,
      -25.4515891
     ],
     [
      -48.7521902,
      -25.4517855
     ]
    ]
   },
   "properties": {
    "tipo": "via",
    "id": "via-0",
    "hierarquia": "principal",
    "comprimento_m": 400,
    "rampaMedia_pct": 0,
    "rampaMaxima_pct": 4.92,
    "faixaDominio_m": 8.4,
    "cotaInicial_m": 622.72,
    "cotaFinal_m": 622.72,
    "saiDaGleba": true
   }
  },
  {
   "type": "Feature",
   "geometry": {
    "type": "LineString",
    "coordinates": [
     [
      -48.7501659,
      -25.4516276
     ],
     [
      -48.7501152,
      -25.4515571
     ],
     [
      -48.7498062,
      -25.4509725
     ],
     [
      -48.7497703,
      -25.4509048
     ],
     [
      -48.7494616,
      -25.450321
     ],
     [
      -48.7494254,
      -25.4502526
     ],
     [
      -48.7491174,
      -25.4496699
     ],
     [
      -48.7490832,
      -25.4496052
     ],
     [
      -48.7487399,
      -25.4489559
     ],
     [
      -48.748515,
      -25.4485306
     ]
    ]
   },
   "properties": {
    "tipo": "via",
    "id": "via-1",
    "hierarquia": "principal",
    "comprimento_m": 381.22,
    "rampaMedia_pct": 0,
    "rampaMaxima_pct": 0.15,
    "faixaDominio_m": 8.4,
    "cotaInicial_m": 624.77,
    "cotaFinal_m": 624.79,
    "saiDaGleba": true
   }
  },
  {
   "type": "Feature",
   "geometry": {
    "type": "LineString",
    "coordinates": [
     [
      -48.749555,
      -25.4509988
     ],
     [
      -48.749613,
      -25.4510704
     ],
     [
      -48.7499159,
      -25.4516575
     ],
     [
      -48.7499492,
      -25.4517221
     ],
     [
      -48.7499834,
      -25.4517883
     ]
    ]
   },
   "properties": {
    "tipo": "via",
    "id": "via-2",
    "hierarquia": "principal",
    "comprimento_m": 97.66,
    "rampaMedia_pct": 0.01,
    "rampaMaxima_pct": 0.21,
    "faixaDominio_m": 8.4,
    "cotaInicial_m": 625.07,
    "cotaFinal_m": 625.06,
    "saiDaGleba": true
   }
  },
  {
   "type": "Feature",
   "geometry": {
    "type": "LineString",
    "coordinates": [
     [
      -48.7475954,
      -25.4510467
     ],
     [
      -48.7477443,
      -25.451263
     ],
     [
      -48.747746,
      -25.4512655
     ],
     [
      -48.7477477,
      -25.4512681
     ],
     [
      -48.7477493,
      -25.4512708
     ],
     [
      -48.7477509,
      -25.4512734
     ],
     [
      -48.7477525,
      -25.4512761
     ],
     [
      -48.747754,
      -25.4512788
     ],
     [
      -48.7479767,
      -25.4516883
     ],
     [
      -48.7480121,
      -25.4517536
     ],
     [
      -48.7480297,
      -25.451786
     ]
    ]
   },
   "properties": {
    "tipo": "via",
    "id": "via-3",
    "hierarquia": "principal",
    "comprimento_m": 92.92,
    "rampaMedia_pct": 0.27,
    "rampaMaxima_pct": 10,
    "faixaDominio_m": 8.4,
    "cotaInicial_m": 626.87,
    "cotaFinal_m": 627.12,
    "saiDaGleba": true
   }
  },
  {
   "type": "Feature",
   "geometry": {
    "type": "LineString",
    "coordinates": [
     [
      -48.7476263,
      -25.4510819
     ],
     [
      -48.747628,
      -25.4510326
     ],
     [
      -48.74749,
      -25.4507666
     ]
    ]
   },
   "properties": {
    "tipo": "via",
    "id": "via-4",
    "hierarquia": "principal",
    "comprimento_m": 38.04,
    "rampaMedia_pct": 0.26,
    "rampaMaxima_pct": 1.84,
    "faixaDominio_m": 8.4,
    "cotaInicial_m": 627,
    "cotaFinal_m": 626.9,
    "saiDaGleba": true
   }
  },
  {
   "type": "Feature",
   "geometry": {
    "type": "LineString",
    "coordinates": [
     [
      -48.7527382,
      -25.4504908
     ],
     [
      -48.752508,
      -25.4506188
     ],
     [
      -48.7525057,
      -25.45062
     ],
     [
      -48.7525034,
      -25.4506212
     ],
     [
      -48.7525011,
      -25.4506223
     ],
     [
      -48.7524987,
      -25.4506233
     ],
     [
      -48.7524963,
      -25.4506243
     ],
     [
      -48.7524938,
      -25.4506253
     ],
     [
      -48.7522824,
      -25.450704
     ],
     [
      -48.7522815,
      -25.4507044
     ],
     [
      -48.7522806,
      -25.4507047
     ],
     [
      -48.7522798,
      -25.4507051
     ],
     [
      -48.7522789,
      -25.4507054
     ],
     [
      -48.752278,
      -25.4507058
     ],
     [
      -48.7522771,
      -25.4507062
     ],
     [
      -48.7517429,
      -25.4509393
     ],
     [
      -48.7501659,
      -25.4516276
     ],
     [
      -48.7499492,
      -25.4517221
     ],
     [
      -48.7497716,
      -25.4517996
     ]
    ]
   },
   "properties": {
    "tipo": "via",
    "id": "via-5",
    "hierarquia": "local",
    "comprimento_m": 331.92,
    "rampaMedia_pct": 1.15,
    "rampaMaxima_pct": 10.04,
    "faixaDominio_m": 8.4,
    "cotaInicial_m": 621.47,
    "cotaFinal_m": 625.29,
    "saiDaGleba": true
   }
  },
  {
   "type": "Feature",
   "geometry": {
    "type": "LineString",
    "coordinates": [
     [
      -48.7513643,
      -25.4502229
     ],
     [
      -48.7513146,
      -25.4502342
     ],
     [
      -48.7513116,
      -25.450235
     ],
     [
      -48.7513085,
      -25.4502358
     ],
     [
      -48.7513055,
      -25.4502367
     ],
     [
      -48.7513026,
      -25.4502377
     ],
     [
      -48.7512996,
      -25.4502388
     ],
     [
      -48.7512967,
      -25.45024
     ],
     [
      -48.7511319,
      -25.45031
     ],
     [
      -48.7497703,
      -25.4509048
     ],
     [
      -48.749555,
      -25.4509988
     ],
     [
      -48.7479767,
      -25.4516883
     ],
     [
      -48.7476915,
      -25.4518129
     ]
    ]
   },
   "properties": {
    "tipo": "via",
    "id": "via-6",
    "hierarquia": "local",
    "comprimento_m": 409.37,
    "rampaMedia_pct": 1.17,
    "rampaMaxima_pct": 10.01,
    "faixaDominio_m": 8.4,
    "cotaInicial_m": 622.72,
    "cotaFinal_m": 627.49,
    "saiDaGleba": true
   }
  },
  {
   "type": "Feature",
   "geometry": {
    "type": "LineString",
    "coordinates": [
     [
      -48.751585,
      -25.4518089
     ],
     [
      -48.7520864,
      -25.4515891
     ],
     [
      -48.752731,
      -25.4513066
     ]
    ]
   },
   "properties": {
    "tipo": "via",
    "id": "via-7",
    "hierarquia": "local",
    "comprimento_m": 127.99,
    "rampaMedia_pct": 1,
    "rampaMaxima_pct": 1.17,
    "faixaDominio_m": 8.4,
    "cotaInicial_m": 623.37,
    "cotaFinal_m": 622.1,
    "saiDaGleba": true
   }
  },
  {
   "type": "Feature",
   "geometry": {
    "type": "LineString",
    "coordinates": [
     [
      -48.7480121,
      -25.4517536
     ],
     [
      -48.748071,
      -25.4517377
     ],
     [
      -48.7480735,
      -25.451737
     ],
     [
      -48.748076,
      -25.4517363
     ],
     [
      -48.7480784,
      -25.4517355
     ],
     [
      -48.7480809,
      -25.4517346
     ],
     [
      -48.7480833,
      -25.4517336
     ],
     [
      -48.7480856,
      -25.4517326
     ],
     [
      -48.749613,
      -25.4510704
     ],
     [
      -48.7497441,
      -25.4510133
     ],
     [
      -48.7497472,
      -25.4510119
     ],
     [
      -48.7497502,
      -25.4510104
     ],
     [
      -48.7497531,
      -25.4510088
     ],
     [
      -48.749756,
      -25.4510072
     ],
     [
      -48.7497588,
      -25.4510054
     ],
     [
      -48.7497616,
      -25.4510036
     ],
     [
      -48.7498062,
      -25.4509725
     ],
     [
      -48.7513962,
      -25.4502833
     ],
     [
      -48.7527244,
      -25.4497082
     ]
    ]
   },
   "properties": {
    "tipo": "via",
    "id": "via-8",
    "hierarquia": "local",
    "comprimento_m": 525.55,
    "rampaMedia_pct": 1.16,
    "rampaMaxima_pct": 10.02,
    "faixaDominio_m": 8.4,
    "cotaInicial_m": 627.12,
    "cotaFinal_m": 621.01,
    "saiDaGleba": true
   }
  },
  {
   "type": "Feature",
   "geometry": {
    "type": "LineString",
    "coordinates": [
     [
      -48.7494616,
      -25.450321
     ],
     [
      -48.7495154,
      -25.4503084
     ],
     [
      -48.7495186,
      -25.4503076
     ],
     [
      -48.7495217,
      -25.4503067
     ],
     [
      -48.7495249,
      -25.4503058
     ],
     [
      -48.7495279,
      -25.4503047
     ],
     [
      -48.749531,
      -25.4503035
     ],
     [
      -48.749534,
      -25.4503022
     ],
     [
      -48.7510534,
      -25.4496347
     ],
     [
      -48.7527358,
      -25.4488955
     ]
    ]
   },
   "properties": {
    "tipo": "via",
    "id": "via-9",
    "hierarquia": "local",
    "comprimento_m": 365.34,
    "rampaMedia_pct": 0.97,
    "rampaMaxima_pct": 10,
    "faixaDominio_m": 8.4,
    "cotaInicial_m": 624.79,
    "cotaFinal_m": 621.24,
    "saiDaGleba": true
   }
  },
  {
   "type": "Feature",
   "geometry": {
    "type": "LineString",
    "coordinates": [
     [
      -48.7491174,
      -25.4496699
     ],
     [
      -48.7491731,
      -25.4496588
     ],
     [
      -48.7491768,
      -25.449658
     ],
     [
      -48.7491806,
      -25.4496571
     ],
     [
      -48.7491842,
      -25.449656
     ],
     [
      -48.7491878,
      -25.4496548
     ],
     [
      -48.7491914,
      -25.4496534
     ],
     [
      -48.7491949,
      -25.449652
     ],
     [
      -48.7507114,
      -25.4489875
     ],
     [
      -48.7517856,
      -25.4485169
     ]
    ]
   },
   "properties": {
    "tipo": "via",
    "id": "via-10",
    "hierarquia": "local",
    "comprimento_m": 297.39,
    "rampaMedia_pct": 1.16,
    "rampaMaxima_pct": 10.01,
    "faixaDominio_m": 8.4,
    "cotaInicial_m": 624.79,
    "cotaFinal_m": 621.32,
    "saiDaGleba": true
   }
  },
  {
   "type": "Feature",
   "geometry": {
    "type": "LineString",
    "coordinates": [
     [
      -48.7499159,
      -25.4516575
     ],
     [
      -48.7499676,
      -25.4516234
     ],
     [
      -48.74997,
      -25.4516219
     ],
     [
      -48.7499725,
      -25.4516204
     ],
     [
      -48.749975,
      -25.451619
     ],
     [
      -48.7499776,
      -25.4516177
     ],
     [
      -48.7499802,
      -25.4516164
     ],
     [
      -48.7499828,
      -25.4516152
     ],
     [
      -48.7501152,
      -25.4515571
     ],
     [
      -48.7516361,
      -25.4508925
     ],
     [
      -48.7516391,
      -25.4508913
     ],
     [
      -48.7516421,
      -25.4508901
     ],
     [
      -48.7516452,
      -25.450889
     ],
     [
      -48.7516483,
      -25.450888
     ],
     [
      -48.7516515,
      -25.4508872
     ],
     [
      -48.7516547,
      -25.4508864
     ],
     [
      -48.7517084,
      -25.450874
     ]
    ]
   },
   "properties": {
    "tipo": "via",
    "id": "via-11",
    "hierarquia": "local",
    "comprimento_m": 200.33,
    "rampaMedia_pct": 0.99,
    "rampaMaxima_pct": 10.02,
    "faixaDominio_m": 8.4,
    "cotaInicial_m": 625.05,
    "cotaFinal_m": 623.07,
    "saiDaGleba": true
   }
  },
  {
   "type": "Feature",
   "geometry": {
    "type": "LineString",
    "coordinates": [
     [
      -48.7510202,
      -25.4495718
     ],
     [
      -48.7509669,
      -25.4495852
     ],
     [
      -48.7509641,
      -25.4495859
     ],
     [
      -48.7509613,
      -25.4495868
     ],
     [
      -48.7509586,
      -25.4495876
     ],
     [
      -48.7509559,
      -25.4495886
     ],
     [
      -48.7509532,
      -25.4495896
     ],
     [
      -48.7509506,
      -25.4495908
     ],
     [
      -48.7494254,
      -25.4502526
     ],
     [
      -48.747628,
      -25.4510326
     ],
     [
      -48.7475954,
      -25.4510467
     ],
     [
      -48.747488,
      -25.4510933
     ]
    ]
   },
   "properties": {
    "tipo": "via",
    "id": "via-12",
    "hierarquia": "local",
    "comprimento_m": 393.32,
    "rampaMedia_pct": 1.05,
    "rampaMaxima_pct": 10.01,
    "faixaDominio_m": 8.4,
    "cotaInicial_m": 623.1,
    "cotaFinal_m": 627.22,
    "saiDaGleba": true
   }
  },
  {
   "type": "Feature",
   "geometry": {
    "type": "LineString",
    "coordinates": [
     [
      -48.750676,
      -25.4489207
     ],
     [
      -48.750621,
      -25.4489327
     ],
     [
      -48.7506175,
      -25.4489335
     ],
     [
      -48.7506141,
      -25.4489344
     ],
     [
      -48.7506107,
      -25.4489354
     ],
     [
      -48.7506073,
      -25.4489366
     ],
     [
      -48.750604,
      -25.4489378
     ],
     [
      -48.7506008,
      -25.4489392
     ],
     [
      -48.7490832,
      -25.4496052
     ],
     [
      -48.7474718,
      -25.4503124
     ]
    ]
   },
   "properties": {
    "tipo": "via",
    "id": "via-13",
    "hierarquia": "local",
    "comprimento_m": 357.4,
    "rampaMedia_pct": 1.07,
    "rampaMaxima_pct": 10.01,
    "faixaDominio_m": 8.4,
    "cotaInicial_m": 623.05,
    "cotaFinal_m": 626.87,
    "saiDaGleba": true
   }
  },
  {
   "type": "Feature",
   "geometry": {
    "type": "LineString",
    "coordinates": [
     [
      -48.7474748,
      -25.4495586
     ],
     [
      -48.7478032,
      -25.4493631
     ],
     [
      -48.7478051,
      -25.449362
     ],
     [
      -48.747807,
      -25.449361
     ],
     [
      -48.7478089,
      -25.44936
     ],
     [
      -48.7478109,
      -25.449359
     ],
     [
      -48.7478128,
      -25.4493581
     ],
     [
      -48.7478148,
      -25.4493572
     ],
     [
      -48.7487399,
      -25.4489559
     ],
     [
      -48.7497445,
      -25.4485203
     ]
    ]
   },
   "properties": {
    "tipo": "via",
    "id": "via-14",
    "hierarquia": "local",
    "comprimento_m": 255.94,
    "rampaMedia_pct": 1.12,
    "rampaMaxima_pct": 10.02,
    "faixaDominio_m": 8.4,
    "cotaInicial_m": 626.36,
    "cotaFinal_m": 623.48,
    "saiDaGleba": true
   }
  },
  {
   "type": "Feature",
   "geometry": {
    "type": "Polygon",
    "coordinates": [
     [
      [
       -48.7507114,
       -25.4489875
      ],
      [
       -48.750676,
       -25.4489207
      ],
      [
       -48.750621,
       -25.4489327
      ],
      [
       -48.7506175,
       -25.4489335
      ],
      [
       -48.7506141,
       -25.4489344
      ],
      [
       -48.7506107,
       -25.4489354
      ],
      [
       -48.7506073,
       -25.4489366
      ],
      [
       -48.750604,
       -25.4489378
      ],
      [
       -48.7506008,
       -25.4489392
      ],
      [
       -48.7490832,
       -25.4496052
      ],
      [
       -48.7491174,
       -25.4496699
      ],
      [
       -48.7491731,
       -25.4496588
      ],
      [
       -48.7491768,
       -25.449658
      ],
      [
       -48.7491806,
       -25.4496571
      ],
      [
       -48.7491842,
       -25.449656
      ],
      [
       -48.7491878,
       -25.4496548
      ],
      [
       -48.7491914,
       -25.4496534
      ],
      [
       -48.7491949,
       -25.449652
      ],
      [
       -48.7507114,
       -25.4489875
      ]
     ]
    ]
   },
   "properties": {
    "tipo": "quadra",
    "id": "quadra-0",
    "area_m2": 1692.5,
    "perimetro_m": 370.97,
    "fracaoDentroDaGleba": 1
   }
  },
  {
   "type": "Feature",
   "geometry": {
    "type": "Polygon",
    "coordinates": [
     [
      [
       -48.7510202,
       -25.4495718
      ],
      [
       -48.7507114,
       -25.4489875
      ],
      [
       -48.7491949,
       -25.449652
      ],
      [
       -48.7491914,
       -25.4496534
      ],
      [
       -48.7491878,
       -25.4496548
      ],
      [
       -48.7491842,
       -25.449656
      ],
      [
       -48.7491806,
       -25.4496571
      ],
      [
       -48.7491768,
       -25.449658
      ],
      [
       -48.7491731,
       -25.4496588
      ],
      [
       -48.7491174,
       -25.4496699
      ],
      [
       -48.7494254,
       -25.4502526
      ],
      [
       -48.7509506,
       -25.4495908
      ],
      [
       -48.7509532,
       -25.4495896
      ],
      [
       -48.7509559,
       -25.4495886
      ],
      [
       -48.7509586,
       -25.4495876
      ],
      [
       -48.7509613,
       -25.4495868
      ],
      [
       -48.7509641,
       -25.4495859
      ],
      [
       -48.7509669,
       -25.4495852
      ],
      [
       -48.7510202,
       -25.4495718
      ]
     ]
    ]
   },
   "properties": {
    "tipo": "quadra",
    "id": "quadra-1",
    "area_m2": 12474.78,
    "perimetro_m": 498.14,
    "fracaoDentroDaGleba": 1
   }
  },
  {
   "type": "Feature",
   "geometry": {
    "type": "Polygon",
    "coordinates": [
     [
      [
       -48.7510534,
       -25.4496347
      ],
      [
       -48.7510202,
       -25.4495718
      ],
      [
       -48.7509669,
       -25.4495852
      ],
      [
       -48.7509641,
       -25.4495859
      ],
      [
       -48.7509613,
       -25.4495868
      ],
      [
       -48.7509586,
       -25.4495876
      ],
      [
       -48.7509559,
       -25.4495886
      ],
      [
       -48.7509532,
       -25.4495896
      ],
      [
       -48.7509506,
       -25.4495908
      ],
      [
       -48.7494254,
       -25.4502526
      ],
      [
       -48.7494616,
       -25.450321
      ],
      [
       -48.7495154,
       -25.4503084
      ],
      [
       -48.7495186,
       -25.4503076
      ],
      [
       -48.7495217,
       -25.4503067
      ],
      [
       -48.7495249,
       -25.4503058
      ],
      [
       -48.7495279,
       -25.4503047
      ],
      [
       -48.749531,
       -25.4503035
      ],
      [
       -48.749534,
       -25.4503022
      ],
      [
       -48.7510534,
       -25.4496347
      ]
     ]
    ]
   },
   "properties": {
    "tipo": "quadra",
    "id": "quadra-2",
    "area_m2": 1636.72,
    "perimetro_m": 370.81,
    "fracaoDentroDaGleba": 1
   }
  },
  {
   "type": "Feature",
   "geometry": {
    "type": "Polygon",
    "coordinates": [
     [
      [
       -48.7513643,
       -25.4502229
      ],
      [
       -48.7510534,
       -25.4496347
      ],
      [
       -48.749534,
       -25.4503022
      ],
      [
       -48.749531,
       -25.4503035
      ],
      [
       -48.7495279,
       -25.4503047
      ],
      [
       -48.7495249,
       -25.4503058
      ],
      [
       -48.7495217,
       -25.4503067
      ],
      [
       -48.7495186,
       -25.4503076
      ],
      [
       -48.7495154,
       -25.4503084
      ],
      [
       -48.7494616,
       -25.450321
      ],
      [
       -48.7497703,
       -25.4509048
      ],
      [
       -48.7511319,
       -25.45031
      ],
      [
       -48.7512967,
       -25.45024
      ],
      [
       -48.7512996,
       -25.4502388
      ],
      [
       -48.7513026,
       -25.4502377
      ],
      [
       -48.7513055,
       -25.4502367
      ],
      [
       -48.7513085,
       -25.4502358
      ],
      [
       -48.7513116,
       -25.450235
      ],
      [
       -48.7513146,
       -25.4502342
      ],
      [
       -48.7513643,
       -25.4502229
      ]
     ]
    ]
   },
   "properties": {
    "tipo": "quadra",
    "id": "quadra-3",
    "area_m2": 12530.56,
    "perimetro_m": 498.72,
    "fracaoDentroDaGleba": 1
   }
  },
  {
   "type": "Feature",
   "geometry": {
    "type": "Polygon",
    "coordinates": [
     [
      [
       -48.7513962,
       -25.4502833
      ],
      [
       -48.7513643,
       -25.4502229
      ],
      [
       -48.7513146,
       -25.4502342
      ],
      [
       -48.7513116,
       -25.450235
      ],
      [
       -48.7513085,
       -25.4502358
      ],
      [
       -48.7513055,
       -25.4502367
      ],
      [
       -48.7513026,
       -25.4502377
      ],
      [
       -48.7512996,
       -25.4502388
      ],
      [
       -48.7512967,
       -25.45024
      ],
      [
       -48.7511319,
       -25.45031
      ],
      [
       -48.7497703,
       -25.4509048
      ],
      [
       -48.7498062,
       -25.4509725
      ],
      [
       -48.7513962,
       -25.4502833
      ]
     ]
    ]
   },
   "properties": {
    "tipo": "quadra",
    "id": "quadra-4",
    "area_m2": 1516.16,
    "perimetro_m": 370.31,
    "fracaoDentroDaGleba": 1
   }
  },
  {
   "type": "Feature",
   "geometry": {
    "type": "Polygon",
    "coordinates": [
     [
      [
       -48.7517084,
       -25.450874
      ],
      [
       -48.7513962,
       -25.4502833
      ],
      [
       -48.7498062,
       -25.4509725
      ],
      [
       -48.7501152,
       -25.4515571
      ],
      [
       -48.7516361,
       -25.4508925
      ],
      [
       -48.7516391,
       -25.4508913
      ],
      [
       -48.7516421,
       -25.4508901
      ],
      [
       -48.7516452,
       -25.450889
      ],
      [
       -48.7516483,
       -25.450888
      ],
      [
       -48.7516515,
       -25.4508872
      ],
      [
       -48.7516547,
       -25.4508864
      ],
      [
       -48.7517084,
       -25.450874
      ]
     ]
    ]
   },
   "properties": {
    "tipo": "quadra",
    "id": "quadra-5",
    "area_m2": 12684.54,
    "perimetro_m": 498.96,
    "fracaoDentroDaGleba": 0.1591
   }
  },
  {
   "type": "Feature",
   "geometry": {
    "type": "Polygon",
    "coordinates": [
     [
      [
       -48.7517429,
       -25.4509393
      ],
      [
       -48.7517084,
       -25.450874
      ],
      [
       -48.7516547,
       -25.4508864
      ],
      [
       -48.7516515,
       -25.4508872
      ],
      [
       -48.7516483,
       -25.450888
      ],
      [
       -48.7516452,
       -25.450889
      ],
      [
       -48.7516421,
       -25.4508901
      ],
      [
       -48.7516391,
       -25.4508913
      ],
      [
       -48.7516361,
       -25.4508925
      ],
      [
       -48.7501152,
       -25.4515571
      ],
      [
       -48.7501659,
       -25.4516276
      ],
      [
       -48.7517429,
       -25.4509393
      ]
     ]
    ]
   },
   "properties": {
    "tipo": "quadra",
    "id": "quadra-6",
    "area_m2": 1635.28,
    "perimetro_m": 370.67,
    "fracaoDentroDaGleba": 0.1136
   }
  },
  {
   "type": "Feature",
   "geometry": {
    "type": "Polygon",
    "coordinates": [
     [
      [
       -48.7501659,
       -25.4516276
      ],
      [
       -48.7501152,
       -25.4515571
      ],
      [
       -48.7499828,
       -25.4516152
      ],
      [
       -48.7499802,
       -25.4516164
      ],
      [
       -48.7499776,
       -25.4516177
      ],
      [
       -48.749975,
       -25.451619
      ],
      [
       -48.7499725,
       -25.4516204
      ],
      [
       -48.74997,
       -25.4516219
      ],
      [
       -48.7499676,
       -25.4516234
      ],
      [
       -48.7499159,
       -25.4516575
      ],
      [
       -48.7499492,
       -25.4517221
      ],
      [
       -48.7501659,
       -25.4516276
      ]
     ]
    ]
   },
   "properties": {
    "tipo": "quadra",
    "id": "quadra-7",
    "area_m2": 212.15,
    "perimetro_m": 64.39,
    "fracaoDentroDaGleba": 0.0341
   }
  },
  {
   "type": "Feature",
   "geometry": {
    "type": "Polygon",
    "coordinates": [
     [
      [
       -48.7494616,
       -25.450321
      ],
      [
       -48.7494254,
       -25.4502526
      ],
      [
       -48.747628,
       -25.4510326
      ],
      [
       -48.7475954,
       -25.4510467
      ],
      [
       -48.7477443,
       -25.451263
      ],
      [
       -48.747746,
       -25.4512655
      ],
      [
       -48.7477477,
       -25.4512681
      ],
      [
       -48.7477493,
       -25.4512708
      ],
      [
       -48.7477509,
       -25.4512734
      ],
      [
       -48.7477525,
       -25.4512761
      ],
      [
       -48.747754,
       -25.4512788
      ],
      [
       -48.7479767,
       -25.4516883
      ],
      [
       -48.749555,
       -25.4509988
      ],
      [
       -48.7497703,
       -25.4509048
      ],
      [
       -48.7494616,
       -25.450321
      ]
     ]
    ]
   },
   "properties": {
    "tipo": "quadra",
    "id": "quadra-8",
    "area_m2": 16175.48,
    "perimetro_m": 565.21,
    "fracaoDentroDaGleba": 0.2143
   }
  },
  {
   "type": "Feature",
   "geometry": {
    "type": "Polygon",
    "coordinates": [
     [
      [
       -48.7498062,
       -25.4509725
      ],
      [
       -48.7497703,
       -25.4509048
      ],
      [
       -48.749555,
       -25.4509988
      ],
      [
       -48.749613,
       -25.4510704
      ],
      [
       -48.7497441,
       -25.4510133
      ],
      [
       -48.7497472,
       -25.4510119
      ],
      [
       -48.7497502,
       -25.4510104
      ],
      [
       -48.7497531,
       -25.4510088
      ],
      [
       -48.749756,
       -25.4510072
      ],
      [
       -48.7497588,
       -25.4510054
      ],
      [
       -48.7497616,
       -25.4510036
      ],
      [
       -48.7498062,
       -25.4509725
      ]
     ]
    ]
   },
   "properties": {
    "tipo": "quadra",
    "id": "quadra-9",
    "area_m2": 219.41,
    "perimetro_m": 64.54,
    "fracaoDentroDaGleba": 1
   }
  },
  {
   "type": "Feature",
   "geometry": {
    "type": "Polygon",
    "coordinates": [
     [
      [
       -48.7501152,
       -25.4515571
      ],
      [
       -48.7498062,
       -25.4509725
      ],
      [
       -48.7497616,
       -25.4510036
      ],
      [
       -48.7497588,
       -25.4510054
      ],
      [
       -48.749756,
       -25.4510072
      ],
      [
       -48.7497531,
       -25.4510088
      ],
      [
       -48.7497502,
       -25.4510104
      ],
      [
       -48.7497472,
       -25.4510119
      ],
      [
       -48.7497441,
       -25.4510133
      ],
      [
       -48.749613,
       -25.4510704
      ],
      [
       -48.7499159,
       -25.4516575
      ],
      [
       -48.7499676,
       -25.4516234
      ],
      [
       -48.74997,
       -25.4516219
      ],
      [
       -48.7499725,
       -25.4516204
      ],
      [
       -48.749975,
       -25.451619
      ],
      [
       -48.7499776,
       -25.4516177
      ],
      [
       -48.7499802,
       -25.4516164
      ],
      [
       -48.7499828,
       -25.4516152
      ],
      [
       -48.7501152,
       -25.4515571
      ]
     ]
    ]
   },
   "properties": {
    "tipo": "quadra",
    "id": "quadra-10",
    "area_m2": 1598.09,
    "perimetro_m": 188.99,
    "fracaoDentroDaGleba": 0.9375
   }
  },
  {
   "type": "Feature",
   "geometry": {
    "type": "Polygon",
    "coordinates": [
     [
      [
       -48.749613,
       -25.4510704
      ],
      [
       -48.749555,
       -25.4509988
      ],
      [
       -48.7479767,
       -25.4516883
      ],
      [
       -48.7480121,
       -25.4517536
      ],
      [
       -48.748071,
       -25.4517377
      ],
      [
       -48.7480735,
       -25.451737
      ],
      [
       -48.748076,
       -25.4517363
      ],
      [
       -48.7480784,
       -25.4517355
      ],
      [
       -48.7480809,
       -25.4517346
      ],
      [
       -48.7480833,
       -25.4517336
      ],
      [
       -48.7480856,
       -25.4517326
      ],
      [
       -48.749613,
       -25.4510704
      ]
     ]
    ]
   },
   "properties": {
    "tipo": "quadra",
    "id": "quadra-11",
    "area_m2": 1662.9,
    "perimetro_m": 372.07,
    "fracaoDentroDaGleba": 0.0909
   }
  }
 ]
}
