{
 "type": "FeatureCollection",
 "archilly": {
  "schema": "archilly-terreno",
  "versao": "1.1",
  "origem": "archilly-lab LAB-01 · gerar-terrenos.ts",
  "geradoEm": "2026-09-10T00:00:00.000Z",
  "estudoId": "pequeno",
  "empreendimento": {
   "nome": "Lote da Rua das Acácias",
   "id": "pequeno"
  },
  "crsTrabalho": null,
  "procedencia": "Números do estudo de prova \"pequeno\" do Archilly Geo (src/lib/geo/relatorio/__tests__/estudos-de-prova.ts, SINTESE_PEQUENA): área 450 m², 4 vértices, UTM 22S, Antonina/PR, sem restrições e relevo nulo. Aquele estudo NÃO tem geometria (vertices: [], testadas com coordenadas de exemplo), então o retângulo de 15 × 30 m foi construído para a área bater exatamente. As testadas do estudo são 15 m e 29 m; o perímetro declarado lá é 88 m e aqui sai 90 m, pela mesma razão. Relevo: o estudo diz relevo nulo, e um terreno plano perfeito degenera o campo tensorial (limitação declarada pelo upstream), então foi posta uma rampa suave de 1,5 % — registrada como acréscimo do Lab. TESTE DE SANIDADE: pequeno demais para rede viária.",
  "sintese": {
   "areaBruta_m2": 450,
   "areaLiquida_m2": 450,
   "areaParcelavel_m2": 450,
   "restricoes": [],
   "restricoesDetalhadas": [],
   "relevo": {
    "cotaMin": 8.4,
    "cotaMax": 8.9,
    "desnivel": 0.5,
    "classesDeclividade": [],
    "fonteMdt": "superfície analítica do gerador do LAB-01",
    "resolucao_m": 0.5
   }
  }
 },
 "features": [
  {
   "type": "Feature",
   "geometry": {
    "type": "Polygon",
    "coordinates": [
     [
      [
       -48.699812657,
       -25.41
      ],
      [
       -48.7,
       -25.410095216
      ],
      [
       -48.700164059,
       -25.41
      ],
      [
       -48.7,
       -25.409865427
      ],
      [
       -48.699812657,
       -25.41
      ]
     ]
    ]
   },
   "properties": {
    "tipo": "terreno",
    "nome": "Lote da Rua das Acácias",
    "origem": "desenho",
    "areaDocumento_m2": null,
    "areaCalculada_m2": 450,
    "metodoArea": "plano_local",
    "perimetro_m": 87.46,
    "vertices": 4,
    "datum": "SIRGAS 2000",
    "zonaUtm": "UTM 22S",
    "matricula": null,
    "cartorioCns": null,
    "codigoIncra": null,
    "certificacaoSigef": null,
    "numeroCar": null,
    "municipio": "Antonina",
    "uf": "PR",
    "rural": false
   }
  },
  {
   "type": "Feature",
   "geometry": {
    "type": "LineString",
    "coordinates": [
     [
      -48.700091984,
      -25.409853435
     ],
     [
      -48.700091984,
      -25.409853435
     ],
     [
      -48.700089996,
      -25.409848922
     ],
     [
      -48.70008781,
      -25.409843957
     ],
     [
      -48.700088009,
      -25.409844408
     ],
     [
      -48.700086021,
      -25.409839895
     ]
    ]
   },
   "properties": {
    "tipo": "curva_nivel",
    "cota_m": 8.5,
    "equidistancia_m": 0.1
   }
  },
  {
   "type": "Feature",
   "geometry": {
    "type": "LineString",
    "coordinates": [
     [
      -48.700092779,
      -25.409855241
     ],
     [
      -48.700093972,
      -25.409857949
     ],
     [
      -48.70009596,
      -25.409862462
     ],
     [
      -48.700097749,
      -25.409866524
     ],
     [
      -48.700097948,
      -25.409866976
     ],
     [
      -48.700099936,
      -25.409871489
     ],
     [
      -48.700101923,
      -25.409876003
     ],
     [
      -48.700101923,
      -25.409876003
     ]
    ]
   },
   "properties": {
    "tipo": "curva_nivel",
    "cota_m": 8.5,
    "equidistancia_m": 0.1
   }
  },
  {
   "type": "Feature",
   "geometry": {
    "type": "LineString",
    "coordinates": [
     [
      -48.700102719,
      -25.409877808
     ],
     [
      -48.700103911,
      -25.409880516
     ],
     [
      -48.700105899,
      -25.40988503
     ],
     [
      -48.700107688,
      -25.409889092
     ],
     [
      -48.700107887,
      -25.409889543
     ],
     [
      -48.700109875,
      -25.409894057
     ],
     [
      -48.700111863,
      -25.40989857
     ],
     [
      -48.700111863,
      -25.40989857
     ]
    ]
   },
   "properties": {
    "tipo": "curva_nivel",
    "cota_m": 8.5,
    "equidistancia_m": 0.1
   }
  },
  {
   "type": "Feature",
   "geometry": {
    "type": "LineString",
    "coordinates": [
     [
      -48.700112658,
      -25.409900375
     ],
     [
      -48.70011385,
      -25.409903084
     ],
     [
      -48.700115838,
      -25.409907597
     ],
     [
      -48.700117627,
      -25.409911659
     ],
     [
      -48.700117826,
      -25.409912111
     ],
     [
      -48.700119814,
      -25.409916624
     ],
     [
      -48.700121802,
      -25.409921138
     ],
     [
      -48.700121802,
      -25.409921138
     ]
    ]
   },
   "properties": {
    "tipo": "curva_nivel",
    "cota_m": 8.5,
    "equidistancia_m": 0.1
   }
  },
  {
   "type": "Feature",
   "geometry": {
    "type": "LineString",
    "coordinates": [
     [
      -48.700122597,
      -25.409922943
     ],
     [
      -48.700123789,
      -25.409925651
     ],
     [
      -48.700125777,
      -25.409930165
     ],
     [
      -48.700127566,
      -25.409934227
     ],
     [
      -48.700127765,
      -25.409934678
     ],
     [
      -48.700129753,
      -25.409939191
     ],
     [
      -48.700131741,
      -25.409943705
     ],
     [
      -48.700131741,
      -25.409943705
     ]
    ]
   },
   "properties": {
    "tipo": "curva_nivel",
    "cota_m": 8.5,
    "equidistancia_m": 0.1
   }
  },
  {
   "type": "Feature",
   "geometry": {
    "type": "LineString",
    "coordinates": [
     [
      -48.700132536,
      -25.40994551
     ],
     [
      -48.700133729,
      -25.409948218
     ],
     [
      -48.700135716,
      -25.409952732
     ],
     [
      -48.700137505,
      -25.409956794
     ],
     [
      -48.700137704,
      -25.409957245
     ],
     [
      -48.700139692,
      -25.409961759
     ],
     [
      -48.70014168,
      -25.409966272
     ],
     [
      -48.70014168,
      -25.409966272
     ]
    ]
   },
   "properties": {
    "tipo": "curva_nivel",
    "cota_m": 8.5,
    "equidistancia_m": 0.1
   }
  },
  {
   "type": "Feature",
   "geometry": {
    "type": "LineString",
    "coordinates": [
     [
      -48.700142475,
      -25.409968078
     ],
     [
      -48.700143668,
      -25.409970786
     ],
     [
      -48.700145656,
      -25.409975299
     ],
     [
      -48.700147445,
      -25.409979362
     ],
     [
      -48.700147643,
      -25.409979813
     ],
     [
      -48.700149631,
      -25.409984326
     ],
     [
      -48.700151619,
      -25.40998884
     ],
     [
      -48.700151619,
      -25.40998884
     ]
    ]
   },
   "properties": {
    "tipo": "curva_nivel",
    "cota_m": 8.5,
    "equidistancia_m": 0.1
   }
  },
  {
   "type": "Feature",
   "geometry": {
    "type": "LineString",
    "coordinates": [
     [
      -48.700152414,
      -25.409990645
     ],
     [
      -48.700153607,
      -25.409993353
     ],
     [
      -48.700155595,
      -25.409997867
     ],
     [
      -48.700157384,
      -25.410001929
     ],
     [
      -48.700157583,
      -25.41000238
     ],
     [
      -48.70015957,
      -25.410006894
     ],
     [
      -48.700161558,
      -25.410011407
     ],
     [
      -48.700161558,
      -25.410011407
     ]
    ]
   },
   "properties": {
    "tipo": "curva_nivel",
    "cota_m": 8.5,
    "equidistancia_m": 0.1
   }
  },
  {
   "type": "Feature",
   "geometry": {
    "type": "LineString",
    "coordinates": [
     [
      -48.700162353,
      -25.410013213
     ],
     [
      -48.700163546,
      -25.410015921
     ],
     [
      -48.700165534,
      -25.410020434
     ],
     [
      -48.700167323,
      -25.410024496
     ],
     [
      -48.700167522,
      -25.410024948
     ],
     [
      -48.700169509,
      -25.410029461
     ],
     [
      -48.700171497,
      -25.410033975
     ],
     [
      -48.700171497,
      -25.410033975
     ]
    ]
   },
   "properties": {
    "tipo": "curva_nivel",
    "cota_m": 8.5,
    "equidistancia_m": 0.1
   }
  },
  {
   "type": "Feature",
   "geometry": {
    "type": "LineString",
    "coordinates": [
     [
      -48.700172292,
      -25.41003578
     ],
     [
      -48.700173485,
      -25.410038488
     ],
     [
      -48.700175473,
      -25.410043002
     ],
     [
      -48.700177262,
      -25.410047064
     ],
     [
      -48.700177461,
      -25.410047515
     ],
     [
      -48.700179449,
      -25.410052029
     ],
     [
      -48.700181436,
      -25.410056542
     ],
     [
      -48.700181436,
      -25.410056542
     ]
    ]
   },
   "properties": {
    "tipo": "curva_nivel",
    "cota_m": 8.5,
    "equidistancia_m": 0.1
   }
  },
  {
   "type": "Feature",
   "geometry": {
    "type": "LineString",
    "coordinates": [
     [
      -48.700182232,
      -25.410058348
     ],
     [
      -48.700183424,
      -25.410061056
     ],
     [
      -48.700185412,
      -25.410065569
     ],
     [
      -48.700187201,
      -25.410069631
     ],
     [
      -48.7001874,
      -25.410070083
     ],
     [
      -48.700189388,
      -25.410074596
     ],
     [
      -48.700191376,
      -25.41007911
     ],
     [
      -48.700191376,
      -25.41007911
     ]
    ]
   },
   "properties": {
    "tipo": "curva_nivel",
    "cota_m": 8.5,
    "equidistancia_m": 0.1
   }
  },
  {
   "type": "Feature",
   "geometry": {
    "type": "LineString",
    "coordinates": [
     [
      -48.699979871,
      -25.409839895
     ],
     [
      -48.699981859,
      -25.409844408
     ],
     [
      -48.699983449,
      -25.409848019
     ],
     [
      -48.699983847,
      -25.409848922
     ],
     [
      -48.699985834,
      -25.409853435
     ],
     [
      -48.699987822,
      -25.409857949
     ],
     [
      -48.699987822,
      -25.409857949
     ]
    ]
   },
   "properties": {
    "tipo": "curva_nivel",
    "cota_m": 8.6,
    "equidistancia_m": 0.1
   }
  },
  {
   "type": "Feature",
   "geometry": {
    "type": "LineString",
    "coordinates": [
     [
      -48.699988419,
      -25.409859303
     ],
     [
      -48.69998981,
      -25.409862462
     ],
     [
      -48.699991798,
      -25.409866976
     ],
     [
      -48.699993388,
      -25.409870586
     ],
     [
      -48.699993786,
      -25.409871489
     ],
     [
      -48.699995774,
      -25.409876003
     ],
     [
      -48.699997761,
      -25.409880516
     ],
     [
      -48.699997761,
      -25.409880516
     ]
    ]
   },
   "properties": {
    "tipo": "curva_nivel",
    "cota_m": 8.6,
    "equidistancia_m": 0.1
   }
  },
  {
   "type": "Feature",
   "geometry": {
    "type": "LineString",
    "coordinates": [
     [
      -48.699998358,
      -25.40988187
     ],
     [
      -48.699999749,
      -25.40988503
     ],
     [
      -48.700001737,
      -25.409889543
     ],
     [
      -48.700003327,
      -25.409893154
     ],
     [
      -48.700003725,
      -25.409894057
     ],
     [
      -48.700005713,
      -25.40989857
     ],
     [
      -48.700007701,
      -25.409903084
     ],
     [
      -48.700007701,
      -25.409903084
     ]
    ]
   },
   "properties": {
    "tipo": "curva_nivel",
    "cota_m": 8.6,
    "equidistancia_m": 0.1
   }
  },
  {
   "type": "Feature",
   "geometry": {
    "type": "LineString",
    "coordinates": [
     [
      -48.700008297,
      -25.409904438
     ],
     [
      -48.700009688,
      -25.409907597
     ],
     [
      -48.700011676,
      -25.409912111
     ],
     [
      -48.700013266,
      -25.409915721
     ],
     [
      -48.700013664,
      -25.409916624
     ],
     [
      -48.700015652,
      -25.409921138
     ],
     [
      -48.70001764,
      -25.409925651
     ],
     [
      -48.70001764,
      -25.409925651
     ]
    ]
   },
   "properties": {
    "tipo": "curva_nivel",
    "cota_m": 8.6,
    "equidistancia_m": 0.1
   }
  },
  {
   "type": "Feature",
   "geometry": {
    "type": "LineString",
    "coordinates": [
     [
      -48.700018236,
      -25.409927005
     ],
     [
      -48.700019627,
      -25.409930165
     ],
     [
      -48.700021615,
      -25.409934678
     ],
     [
      -48.700023206,
      -25.409938289
     ],
     [
      -48.700023603,
      -25.409939191
     ],
     [
      -48.700025591,
      -25.409943705
     ],
     [
      -48.700027579,
      -25.409948218
     ],
     [
      -48.700027579,
      -25.409948218
     ]
    ]
   },
   "properties": {
    "tipo": "curva_nivel",
    "cota_m": 8.6,
    "equidistancia_m": 0.1
   }
  },
  {
   "type": "Feature",
   "geometry": {
    "type": "LineString",
    "coordinates": [
     [
      -48.700028175,
      -25.409949573
     ],
     [
      -48.700029567,
      -25.409952732
     ],
     [
      -48.700031554,
      -25.409957245
     ],
     [
      -48.700033145,
      -25.409960856
     ],
     [
      -48.700033542,
      -25.409961759
     ],
     [
      -48.70003553,
      -25.409966272
     ],
     [
      -48.700037518,
      -25.409970786
     ],
     [
      -48.700037518,
      -25.409970786
     ]
    ]
   },
   "properties": {
    "tipo": "curva_nivel",
    "cota_m": 8.6,
    "equidistancia_m": 0.1
   }
  },
  {
   "type": "Feature",
   "geometry": {
    "type": "LineString",
    "coordinates": [
     [
      -48.700038114,
      -25.40997214
     ],
     [
      -48.700039506,
      -25.409975299
     ],
     [
      -48.700041494,
      -25.409979813
     ],
     [
      -48.700043084,
      -25.409983424
     ],
     [
      -48.700043481,
      -25.409984326
     ],
     [
      -48.700045469,
      -25.40998884
     ],
     [
      -48.700047457,
      -25.409993353
     ],
     [
      -48.700047457,
      -25.409993353
     ]
    ]
   },
   "properties": {
    "tipo": "curva_nivel",
    "cota_m": 8.6,
    "equidistancia_m": 0.1
   }
  },
  {
   "type": "Feature",
   "geometry": {
    "type": "LineString",
    "coordinates": [
     [
      -48.700048053,
      -25.409994707
     ],
     [
      -48.700049445,
      -25.409997867
     ],
     [
      -48.700051433,
      -25.41000238
     ],
     [
      -48.700053023,
      -25.410005991
     ],
     [
      -48.70005342,
      -25.410006894
     ],
     [
      -48.700055408,
      -25.410011407
     ],
     [
      -48.700057396,
      -25.410015921
     ],
     [
      -48.700057396,
      -25.410015921
     ]
    ]
   },
   "properties": {
    "tipo": "curva_nivel",
    "cota_m": 8.6,
    "equidistancia_m": 0.1
   }
  },
  {
   "type": "Feature",
   "geometry": {
    "type": "LineString",
    "coordinates": [
     [
      -48.700057992,
      -25.410017275
     ],
     [
      -48.700059384,
      -25.410020434
     ],
     [
      -48.700061372,
      -25.410024948
     ],
     [
      -48.700062962,
      -25.410028559
     ],
     [
      -48.70006336,
      -25.410029461
     ],
     [
      -48.700065347,
      -25.410033975
     ],
     [
      -48.700067335,
      -25.410038488
     ],
     [
      -48.700067335,
      -25.410038488
     ]
    ]
   },
   "properties": {
    "tipo": "curva_nivel",
    "cota_m": 8.6,
    "equidistancia_m": 0.1
   }
  },
  {
   "type": "Feature",
   "geometry": {
    "type": "LineString",
    "coordinates": [
     [
      -48.700067932,
      -25.410039842
     ],
     [
      -48.700069323,
      -25.410043002
     ],
     [
      -48.700071311,
      -25.410047515
     ],
     [
      -48.700072901,
      -25.410051126
     ],
     [
      -48.700073299,
      -25.410052029
     ],
     [
      -48.700075287,
      -25.410056542
     ],
     [
      -48.700077274,
      -25.410061056
     ],
     [
      -48.700077274,
      -25.410061056
     ]
    ]
   },
   "properties": {
    "tipo": "curva_nivel",
    "cota_m": 8.6,
    "equidistancia_m": 0.1
   }
  },
  {
   "type": "Feature",
   "geometry": {
    "type": "LineString",
    "coordinates": [
     [
      -48.700077871,
      -25.41006241
     ],
     [
      -48.700079262,
      -25.410065569
     ],
     [
      -48.70008125,
      -25.410070083
     ],
     [
      -48.70008284,
      -25.410073693
     ],
     [
      -48.700083238,
      -25.410074596
     ],
     [
      -48.700085226,
      -25.41007911
     ],
     [
      -48.700087214,
      -25.410083623
     ],
     [
      -48.700087214,
      -25.410083623
     ]
    ]
   },
   "properties": {
    "tipo": "curva_nivel",
    "cota_m": 8.6,
    "equidistancia_m": 0.1
   }
  },
  {
   "type": "Feature",
   "geometry": {
    "type": "LineString",
    "coordinates": [
     [
      -48.70008781,
      -25.410084977
     ],
     [
      -48.700089201,
      -25.410088137
     ],
     [
      -48.700091189,
      -25.41009265
     ],
     [
      -48.700092779,
      -25.410096261
     ],
     [
      -48.700093177,
      -25.410097164
     ],
     [
      -48.700095165,
      -25.410101677
     ],
     [
      -48.700097153,
      -25.410106191
     ],
     [
      -48.700097153,
      -25.410106191
     ]
    ]
   },
   "properties": {
    "tipo": "curva_nivel",
    "cota_m": 8.6,
    "equidistancia_m": 0.1
   }
  },
  {
   "type": "Feature",
   "geometry": {
    "type": "LineString",
    "coordinates": [
     [
      -48.700097749,
      -25.410107545
     ],
     [
      -48.70009914,
      -25.410110704
     ],
     [
      -48.700101128,
      -25.410115218
     ],
     [
      -48.700102719,
      -25.410118828
     ],
     [
      -48.700103116,
      -25.410119731
     ],
     [
      -48.700105104,
      -25.410124245
     ]
    ]
   },
   "properties": {
    "tipo": "curva_nivel",
    "cota_m": 8.6,
    "equidistancia_m": 0.1
   }
  },
  {
   "type": "Feature",
   "geometry": {
    "type": "LineString",
    "coordinates": [
     [
      -48.699873721,
      -25.409839895
     ],
     [
      -48.699874119,
      -25.409840797
     ],
     [
      -48.699875709,
      -25.409844408
     ],
     [
      -48.699877697,
      -25.409848922
     ],
     [
      -48.699879088,
      -25.409852081
     ],
     [
      -48.699879685,
      -25.409853435
     ],
     [
      -48.699881672,
      -25.409857949
     ],
     [
      -48.69988366,
      -25.409862462
     ],
     [
      -48.699885648,
      -25.409866976
     ],
     [
      -48.699887636,
      -25.409871489
     ],
     [
      -48.699889027,
      -25.409874649
     ],
     [
      -48.699889624,
      -25.409876003
     ],
     [
      -48.699891612,
      -25.409880516
     ],
     [
      -48.699893599,
      -25.40988503
     ],
     [
      -48.699895587,
      -25.409889543
     ],
     [
      -48.699897575,
      -25.409894057
     ],
     [
      -48.699898966,
      -25.409897216
     ],
     [
      -48.699899563,
      -25.40989857
     ],
     [
      -48.699901551,
      -25.409903084
     ],
     [
      -48.699903538,
      -25.409907597
     ],
     [
      -48.699905526,
      -25.409912111
     ],
     [
      -48.699907514,
      -25.409916624
     ],
     [
      -48.699908906,
      -25.409919783
     ],
     [
      -48.699909502,
      -25.409921138
     ],
     [
      -48.69991149,
      -25.409925651
     ],
     [
      -48.699913478,
      -25.409930165
     ],
     [
      -48.699915465,
      -25.409934678
     ],
     [
      -48.699917453,
      -25.409939191
     ],
     [
      -48.699918845,
      -25.409942351
     ],
     [
      -48.699919441,
      -25.409943705
     ],
     [
      -48.699921429,
      -25.409948218
     ],
     [
      -48.699923417,
      -25.409952732
     ],
     [
      -48.699925405,
      -25.409957245
     ],
     [
      -48.699927392,
      -25.409961759
     ],
     [
      -48.699928784,
      -25.409964918
     ],
     [
      -48.69992938,
      -25.409966272
     ],
     [
      -48.699931368,
      -25.409970786
     ],
     [
      -48.699933356,
      -25.409975299
     ],
     [
      -48.699935344,
      -25.409979813
     ],
     [
      -48.699937332,
      -25.409984326
     ],
     [
      -48.699938723,
      -25.409987486
     ],
     [
      -48.699939319,
      -25.40998884
     ],
     [
      -48.699941307,
      -25.409993353
     ],
     [
      -48.699943295,
      -25.409997867
     ],
     [
      -48.699945283,
      -25.41000238
     ],
     [
      -48.699947271,
      -25.410006894
     ],
     [
      -48.699948662,
      -25.410010053
     ],
     [
      -48.699949258,
      -25.410011407
     ],
     [
      -48.699951246,
      -25.410015921
     ],
     [
      -48.699953234,
      -25.410020434
     ],
     [
      -48.699955222,
      -25.410024948
     ],
     [
      -48.69995721,
      -25.410029461
     ],
     [
      -48.699958601,
      -25.410032621
     ],
     [
      -48.699959198,
      -25.410033975
     ],
     [
      -48.699961185,
      -25.410038488
     ],
     [
      -48.699963173,
      -25.410043002
     ],
     [
      -48.699965161,
      -25.410047515
     ],
     [
      -48.699967149,
      -25.410052029
     ],
     [
      -48.69996854,
      -25.410055188
     ],
     [
      -48.699969137,
      -25.410056542
     ],
     [
      -48.699971125,
      -25.410061056
     ],
     [
      -48.699973112,
      -25.410065569
     ],
     [
      -48.6999751,
      -25.410070083
     ],
     [
      -48.699977088,
      -25.410074596
     ],
     [
      -48.699978479,
      -25.410077756
     ],
     [
      -48.699979076,
      -25.41007911
     ],
     [
      -48.699981064,
      -25.410083623
     ],
     [
      -48.699983051,
      -25.410088137
     ],
     [
      -48.699985039,
      -25.41009265
     ],
     [
      -48.699987027,
      -25.410097164
     ],
     [
      -48.699988419,
      -25.410100323
     ],
     [
      -48.699989015,
      -25.410101677
     ],
     [
      -48.699991003,
      -25.410106191
     ],
     [
      -48.699992991,
      -25.410110704
     ],
     [
      -48.699994978,
      -25.410115218
     ],
     [
      -48.699996966,
      -25.410119731
     ],
     [
      -48.699998358,
      -25.410122891
     ],
     [
      -48.699998954,
      -25.410124245
     ]
    ]
   },
   "properties": {
    "tipo": "curva_nivel",
    "cota_m": 8.7,
    "equidistancia_m": 0.1
   }
  },
  {
   "type": "Feature",
   "geometry": {
    "type": "LineString",
    "coordinates": [
     [
      -48.699779697,
      -25.409867427
     ],
     [
      -48.699781486,
      -25.409871489
     ],
     [
      -48.699783474,
      -25.409876003
     ],
     [
      -48.699784667,
      -25.409878711
     ],
     [
      -48.699785462,
      -25.409880516
     ],
     [
      -48.69978745,
      -25.40988503
     ],
     [
      -48.699789437,
      -25.409889543
     ],
     [
      -48.699791425,
      -25.409894057
     ],
     [
      -48.699793413,
      -25.40989857
     ],
     [
      -48.699794606,
      -25.409901278
     ],
     [
      -48.699795401,
      -25.409903084
     ],
     [
      -48.699797389,
      -25.409907597
     ],
     [
      -48.699799376,
      -25.409912111
     ],
     [
      -48.699801364,
      -25.409916624
     ],
     [
      -48.699803352,
      -25.409921138
     ],
     [
      -48.699804545,
      -25.409923846
     ],
     [
      -48.69980534,
      -25.409925651
     ],
     [
      -48.699807328,
      -25.409930165
     ],
     [
      -48.699809316,
      -25.409934678
     ],
     [
      -48.699811303,
      -25.409939191
     ],
     [
      -48.699813291,
      -25.409943705
     ],
     [
      -48.699814484,
      -25.409946413
     ],
     [
      -48.699815279,
      -25.409948218
     ],
     [
      -48.699817267,
      -25.409952732
     ],
     [
      -48.699819255,
      -25.409957245
     ],
     [
      -48.699821243,
      -25.409961759
     ],
     [
      -48.69982323,
      -25.409966272
     ],
     [
      -48.699824423,
      -25.409968981
     ],
     [
      -48.699825218,
      -25.409970786
     ],
     [
      -48.699827206,
      -25.409975299
     ],
     [
      -48.699829194,
      -25.409979813
     ],
     [
      -48.699831182,
      -25.409984326
     ],
     [
      -48.699833169,
      -25.40998884
     ],
     [
      -48.699834362,
      -25.409991548
     ],
     [
      -48.699835157,
      -25.409993353
     ],
     [
      -48.699837145,
      -25.409997867
     ],
     [
      -48.699839133,
      -25.41000238
     ],
     [
      -48.699841121,
      -25.410006894
     ],
     [
      -48.699843109,
      -25.410011407
     ],
     [
      -48.699844301,
      -25.410014115
     ],
     [
      -48.699845096,
      -25.410015921
     ],
     [
      -48.699847084,
      -25.410020434
     ],
     [
      -48.699849072,
      -25.410024948
     ],
     [
      -48.69985106,
      -25.410029461
     ],
     [
      -48.699853048,
      -25.410033975
     ],
     [
      -48.69985424,
      -25.410036683
     ],
     [
      -48.699855036,
      -25.410038488
     ],
     [
      -48.699857023,
      -25.410043002
     ],
     [
      -48.699859011,
      -25.410047515
     ],
     [
      -48.699860999,
      -25.410052029
     ],
     [
      -48.699862987,
      -25.410056542
     ],
     [
      -48.69986418,
      -25.41005925
     ],
     [
      -48.699864975,
      -25.410061056
     ],
     [
      -48.699866963,
      -25.410065569
     ],
     [
      -48.69986895,
      -25.410070083
     ],
     [
      -48.699870938,
      -25.410074596
     ],
     [
      -48.699872926,
      -25.41007911
     ],
     [
      -48.699874119,
      -25.410081818
     ],
     [
      -48.699874914,
      -25.410083623
     ],
     [
      -48.699876902,
      -25.410088137
     ],
     [
      -48.699878889,
      -25.41009265
     ],
     [
      -48.699880877,
      -25.410097164
     ],
     [
      -48.699882865,
      -25.410101677
     ],
     [
      -48.699884058,
      -25.410104385
     ],
     [
      -48.699884853,
      -25.410106191
     ],
     [
      -48.699886841,
      -25.410110704
     ],
     [
      -48.699888829,
      -25.410115218
     ],
     [
      -48.699890816,
      -25.410119731
     ],
     [
      -48.699892804,
      -25.410124245
     ]
    ]
   },
   "properties": {
    "tipo": "curva_nivel",
    "cota_m": 8.8,
    "equidistancia_m": 0.1
   }
  },
  {
   "type": "Feature",
   "geometry": {
    "type": "LineString",
    "coordinates": [
     [
      -48.699779697,
      -25.410108447
     ],
     [
      -48.699780691,
      -25.410110704
     ],
     [
      -48.699782679,
      -25.410115218
     ],
     [
      -48.699784667,
      -25.410119731
     ],
     [
      -48.699784667,
      -25.410119731
     ],
     [
      -48.699786654,
      -25.410124245
     ]
    ]
   },
   "properties": {
    "tipo": "curva_nivel",
    "cota_m": 8.9,
    "equidistancia_m": 0.1
   }
  }
 ]
}
